NORAD_CAT_ID,OBJECT_NAME,OBJECT_TYPE,EPOCH,MEAN_MOTION,ECCENTRICITY,INCLINATION,RA_OF_ASC_NODE,ARG_OF_PERICENTER,MEAN_ANOMALY,BSTAR,MEAN_MOTION_DOT,MEAN_MOTION_DDOT,TLE_LINE0,TLE_LINE1,TLE_LINE2,SEMIMAJOR_AXIS,PERIOD,APOGEE,PERIGEE,DECAYED
53155.0,STARLINK-4088,PAYLOAD,2023-09-04 08:45:08,15.0882854,0.0001129,53.2178,322.154,85.871,274.2411,-7.7697e-05,-1.524e-05,0.0,0 STARLINK-4088,1 53155U 22083Z   23247.36468079 -.00001524  00000-0 -77697-4 0  9999,2 53155  53.2178 322.1540 0001129  85.8710 274.2411 15.08828540 63502,6917.915,95.438,540.561,538.999,0.0
53155.0,STARLINK-4088,PAYLOAD,2023-09-04 11:55:54,15.08825873,0.0001108,53.2178,321.5588,99.9967,260.115,-9.6894e-05,-1.829e-05,0.0,0 STARLINK-4088,1 53155U 22083Z   23247.49716272 -.00001829  00000-0 -96894-4 0  9992,2 53155  53.2178 321.5588 0001108  99.9967 260.1150 15.08825873 63537,6917.924,95.438,540.555,539.022,0.0
53155.0,STARLINK-4088,PAYLOAD,2023-09-05 21:19:01,15.08826096,0.0001227,53.2181,315.3135,95.4573,264.6559,-8.4822e-05,-1.637e-05,0.0,0 STARLINK-4088,1 53155U 22083Z   23248.88821588 -.00001637  00000-0 -84822-4 0  9998,2 53155  53.2181 315.3135 0001227  95.4573 264.6559 15.08826096 63738,6917.923,95.438,540.637,538.939,0.0
53155.0,STARLINK-4088,PAYLOAD,2023-09-06 03:40:32,15.08832866,0.0001217,53.2185,314.1229,97.1131,263.0,0.00020948,3.047e-05,0.0,0 STARLINK-4088,1 53155U 22083Z   23249.15315935  .00003047  00000-0  20948-3 0  9996,2 53155  53.2185 314.1229 0001217  97.1131 263.0000 15.08832866 63771,6917.902,95.438,540.609,538.925,0.0
53155.0,STARLINK-4088,PAYLOAD,2023-09-06 21:09:47,15.08836281,0.000116,53.2173,310.8548,91.1015,269.011,0.00026351,3.908e-05,0.0,0 STARLINK-4088,1 53155U 22083Z   23249.88179921  .00003908  00000-0  26351-3 0  9999,2 53155  53.2173 310.8548 0001160  91.1015 269.0110 15.08836281 63893,6917.892,95.438,540.559,538.954,0.0
53155.0,STARLINK-4088,PAYLOAD,2023-09-06 22:45:09,15.08860588,7.62e-05,53.2184,310.5586,94.405,265.7029,-0.00015623,-2.775e-05,0.0,0 STARLINK-4088,1 53155U 22083Z   23249.94802930 -.00002775  00000-0 -15623-3 0  9992,2 53155  53.2184 310.5586 0000762  94.4050 265.7029 15.08860588 63895,6917.817,95.436,540.21,539.155,0.0
53155.0,STARLINK-4088,PAYLOAD,2023-09-07 08:17:29,15.08838027,0.00013,53.2176,308.7734,93.025,267.0891,-5.7586e-06,-3.8e-06,0.0,0 STARLINK-4088,1 53155U 22083Z   23250.34548495 -.00000380  00000-0 -57586-5 0  9997,2 53155  53.2176 308.7734 0001300  93.0250 267.0891 15.08838027 63958,6917.886,95.438,540.651,538.852,0.0
53155.0,STARLINK-4088,PAYLOAD,2023-09-07 13:03:38,15.08841197,0.0001284,53.2174,307.8805,95.7938,264.3201,3.9718e-05,3.44e-06,0.0,0 STARLINK-4088,1 53155U 22083Z   23250.54420089  .00000344  00000-0  39718-4 0  9991,2 53155  53.2174 307.8805 0001284  95.7938 264.3201 15.08841197 63999,6917.877,95.437,540.63,538.853,0.0
53155.0,STARLINK-4088,PAYLOAD,2023-09-07 21:00:34,15.08848325,0.0001328,53.2176,306.3945,87.9733,272.1412,9.3685e-05,1.204e-05,0.0,0 STARLINK-4088,1 53155U 22083Z   23250.87539511  .00001204  00000-0  93685-4 0  9997,2 53155  53.2176 306.3945 0001328  87.9733 272.1412 15.08848325 64032,6917.855,95.437,540.639,538.801,0.0
53155.0,STARLINK-4088,PAYLOAD,2023-09-08 11:19:01,15.08856826,0.0001386,53.2176,303.7183,86.9034,273.2117,0.00012504,1.704e-05,0.0,0 STARLINK-4088,1 53155U 22083Z   23251.47154536  .00001704  00000-0  12504-3 0  9999,2 53155  53.2176 303.7183 0001386  86.9034 273.2117 15.08856826 64134,6917.829,95.436,540.653,538.735,0.0
53155.0,STARLINK-4088,PAYLOAD,2023-09-08 16:05:10,15.08853719,0.0001319,53.217,302.8245,88.0503,272.064,0.00025745,3.813e-05,0.0,0 STARLINK-4088,1 53155U 22083Z   23251.67026101  .00003813  00000-0  25745-3 0  9991,2 53155  53.2170 302.8245 0001319  88.0503 272.0640 15.08853719 64155,6917.838,95.437,540.616,538.791,0.0
53155.0,STARLINK-4088,PAYLOAD,2023-09-09 03:12:54,15.08824613,0.0001373,53.2171,300.7434,91.9909,268.124,9.7104e-06,-1.33e-06,0.0,0 STARLINK-4088,1 53155U 22083Z   23252.13396976 -.00000133  00000-0  97104-5 0  9996,2 53155  53.2171 300.7434 0001373  91.9909 268.1240 15.08824613 64227,6917.927,95.439,540.742,538.843,0.0
53155.0,STARLINK-4088,PAYLOAD,2023-09-09 09:34:27,15.08830477,0.0001676,53.2179,299.5544,102.4476,257.6703,4.9238e-05,4.95e-06,0.0,0 STARLINK-4088,1 53155U 22083Z   23252.39892713  .00000495  00000-0  49238-4 0  9998,2 53155  53.2179 299.5544 0001676 102.4476 257.6703 15.08830477 64272,6917.909,95.438,540.934,538.615,0.0
53155.0,STARLINK-4088,PAYLOAD,2023-09-09 14:20:36,15.08835641,0.0001461,53.2165,298.6607,94.3738,265.7421,4.3898e-05,4.11e-06,0.0,0 STARLINK-4088,1 53155U 22083Z   23252.59764492  .00000411  00000-0  43898-4 0  9996,2 53155  53.2165 298.6607 0001461  94.3738 265.7421 15.08835641 64296,6917.894,95.438,540.769,538.748,0.0
53155.0,STARLINK-4088,PAYLOAD,2023-09-10 09:25:13,15.08847066,0.0001597,53.2161,295.093,92.2328,267.8847,0.00046116,7.06e-05,0.0,0 STARLINK-4088,1 53155U 22083Z   23253.39252061  .00007060  00000-0  46116-3 0  9991,2 53155  53.2161 295.0930 0001597  92.2328 267.8847 15.08847066 64417,6917.859,95.437,540.829,538.619,0.0
53155.0,STARLINK-4088,PAYLOAD,2023-09-11 02:54:28,15.08844117,0.0001682,53.2154,291.8225,90.3839,269.7345,0.0003179,4.776e-05,0.0,0 STARLINK-4088,1 53155U 22083Z   23254.12116358  .00004776  00000-0  31790-3 0  9994,2 53155  53.2154 291.8225 0001682  90.3839 269.7345 15.08844117 64521,6917.868,95.437,540.896,538.569,0.0
53155.0,STARLINK-4088,PAYLOAD,2023-09-11 12:26:47,15.08846134,0.0001639,53.2159,290.0377,93.2341,266.8839,0.00029464,4.405e-05,0.0,0 STARLINK-4088,1 53155U 22083Z   23254.51860261  .00004405  00000-0  29464-3 0  9990,2 53155  53.2159 290.0377 0001639  93.2341 266.8839 15.08846134 64591,6917.862,95.437,540.86,538.593,0.0
53155.0,STARLINK-4088,PAYLOAD,2023-09-12 02:45:15,15.08844765,0.0001654,53.2156,287.3612,93.502,266.6162,0.00018642,2.68e-05,0.0,0 STARLINK-4088,1 53155U 22083Z   23255.11476230  .00002680  00000-0  18642-3 0  9995,2 53155  53.2156 287.3612 0001654  93.5020 266.6162 15.08844765 64677,6917.866,95.437,540.875,538.587,0.0
53155.0,STARLINK-4088,PAYLOAD,2023-09-12 12:17:34,15.08845778,0.0001637,53.2158,285.5772,95.1366,264.9813,0.000105,1.384e-05,0.0,0 STARLINK-4088,1 53155U 22083Z   23255.51220037  .00001384  00000-0  10500-3 0  9996,2 53155  53.2158 285.5772 0001637  95.1366 264.9813 15.08845778 64745,6917.863,95.437,540.86,538.595,0.0
53155.0,STARLINK-4088,PAYLOAD,2023-09-13 07:22:11,15.0884402,0.0001664,53.2161,282.0076,102.3306,257.7873,0.00015543,2.187e-05,0.0,0 STARLINK-4088,1 53155U 22083Z   23256.30708036  .00002187  00000-0  15543-3 0  9998,2 53155  53.2161 282.0076 0001664 102.3306 257.7873 15.08844020 64850,6917.868,95.437,540.884,538.582,0.0
53155.0,STARLINK-4088,PAYLOAD,2023-09-13 10:32:57,15.08847098,0.0001662,53.2167,281.4129,101.307,258.8109,0.00019231,2.774e-05,0.0,0 STARLINK-4088,1 53155U 22083Z   23256.43955831  .00002774  00000-0  19231-3 0  9999,2 53155  53.2167 281.4129 0001662 101.3070 258.8109 15.08847098 64888,6917.859,95.437,540.873,538.574,0.0
53155.0,STARLINK-4088,PAYLOAD,2023-09-13 18:29:54,15.08834831,0.0001748,53.216,279.9264,88.6123,271.507,-2.6384e-05,-7.08e-06,0.0,0 STARLINK-4088,1 53155U 22083Z   23256.77076539 -.00000708  00000-0 -26384-4 0  9990,2 53155  53.2160 279.9264 0001748  88.6123 271.5070 15.08834831 64930,6917.896,95.438,540.97,538.552,0.0
53155.0,STARLINK-4088,PAYLOAD,2023-09-14 00:51:26,15.08832101,0.0001924,53.2164,278.7387,94.1082,266.013,-2.8177e-05,-7.36e-06,0.0,0 STARLINK-4088,1 53155U 22083Z   23257.03572824 -.00000736  00000-0 -28177-4 0  9991,2 53155  53.2164 278.7387 0001924  94.1082 266.0130 15.08832101 64966,6917.905,95.438,541.101,538.439,0.0
53155.0,STARLINK-4088,PAYLOAD,2023-09-14 10:23:46,15.08831011,0.0001712,53.218,276.9551,99.2383,260.8803,-4.0494e-05,-9.32e-06,0.0,0 STARLINK-4088,1 53155U 22083Z   23257.43317666 -.00000932  00000-0 -40494-4 0  9990,2 53155  53.2180 276.9551 0001712  99.2383 260.8803 15.08831011 65028,6917.908,95.438,540.957,538.589,0.0
53155.0,STARLINK-4088,PAYLOAD,2023-09-14 11:59:09,15.08832067,0.000169,53.2178,276.6572,98.8818,261.2366,-3.3369e-05,-8.19e-06,0.0,0 STARLINK-4088,1 53155U 22083Z   23257.49941606 -.00000819  00000-0 -33369-4 0  9990,2 53155  53.2178 276.6572 0001690  98.8818 261.2366 15.08832067 65041,6917.905,95.438,540.939,538.601,0.0
53155.0,STARLINK-4088,PAYLOAD,2023-09-15 02:17:37,15.088285,0.0002212,53.2179,273.981,119.6817,240.4396,0.00022432,3.283e-05,0.0,0 STARLINK-4088,1 53155U 22083Z   23258.09557094  .00003283  00000-0  22432-3 0  9995,2 53155  53.2179 273.9810 0002212 119.6817 240.4396 15.08828500 65127,6917.916,95.438,541.311,538.25,0.0
53155.0,STARLINK-4088,PAYLOAD,2023-09-15 08:39:09,15.08850809,0.0001642,53.2179,272.7915,96.4995,263.6184,3.438e-05,2.59e-06,0.0,0 STARLINK-4088,1 53155U 22083Z   23258.36052579  .00000259  00000-0  34380-4 0  9999,2 53155  53.2179 272.7915 0001642  96.4995 263.6184 15.08850809 65168,6917.847,95.437,540.848,538.576,0.0
53155.0,STARLINK-4088,PAYLOAD,2023-09-16 00:33:01,15.0883654,0.000161,53.217,269.8174,93.6677,266.45,0.00022861,3.352e-05,0.0,0 STARLINK-4088,1 53155U 22083Z   23259.02293188  .00003352  00000-0  22861-3 0  9993,2 53155  53.2170 269.8174 0001610  93.6677 266.4500 15.08836540 65264,6917.891,95.438,540.87,538.642,0.0
53155.0,STARLINK-4088,PAYLOAD,2023-09-16 08:29:56,15.08845982,0.0001592,53.2158,268.3303,93.8167,266.3007,0.00028172,4.199e-05,0.0,0 STARLINK-4088,1 53155U 22083Z   23259.35412994  .00004199  00000-0  28172-3 0  9998,2 53155  53.2158 268.3303 0001592  93.8167 266.3007 15.08845982 65321,6917.862,95.437,540.828,538.626,0.0
53155.0,STARLINK-4088,PAYLOAD,2023-09-17 06:45:20,15.0884508,0.0001574,53.2155,264.1661,94.6272,265.49,8.9753e-05,1.141e-05,0.0,0 STARLINK-4088,1 53155U 22083Z   23260.28148970  .00001141  00000-0  89753-4 0  9999,2 53155  53.2155 264.1661 0001574  94.6272 265.4900 15.08845080 65450,6917.865,95.437,540.819,538.641,0.0
